COMMENT,ORIGINATOR,NORAD_CAT_ID,OBJECT_NAME,OBJECT_TYPE,CLASSIFICATION_TYPE,INTLDES,EPOCH,EPOCH_MICROSECONDS,MEAN_MOTION,ECCENTRICITY,INCLINATION,RA_OF_ASC_NODE,ARG_OF_PERICENTER,MEAN_ANOMALY,EPHEMERIS_TYPE,ELEMENT_SET_NO,REV_AT_EPOCH,BSTAR,MEAN_MOTION_DOT,MEAN_MOTION_DDOT,FILE,TLE_LINE0,TLE_LINE1,TLE_LINE2,OBJECT_ID,OBJECT_NUMBER,SEMIMAJOR_AXIS,PERIOD,APOGEE,PERIGEE,DECAYED
GENERATED VIA SPACETRACK.ORG API,18 SPCS,26998,TIMED,PAYLOAD,U,01055B,9/20/24 21:12,309376,14.92084377,0.0000307,74.0698,69.6188,102.7876,257.3341,0,999,23609,0.00035738,0.00003595,0,4500424,0 TIMED,1 26998U 01055B   24264.88363784  .00003595  00000-0  35738-3 0  9991,2 26998  74.0698  69.6188 0000307 102.7876 257.3341 14.92084377236099,2001-055B,26998,6969.574,96.509,591.653,591.225,0
GENERATED VIA SPACETRACK.ORG API,18 SPCS,26998,TIMED,PAYLOAD,U,01055B,9/21/24 2:02,356608,14.92085775,0.0000306,74.0695,69.216,101.2348,258.8869,0,999,23626,0.00035087,0.00003529,0,4500565,0 TIMED,1 26998U 01055B   24265.08478422  .00003529  00000-0  35087-3 0  9994,2 26998  74.0695  69.2160 0000306 101.2348 258.8869 14.92085775236262,2001-055B,26998,6969.57,96.509,591.648,591.222,0
GENERATED VIA SPACETRACK.ORG API,18 SPCS,26998,TIMED,PAYLOAD,U,01055B,9/21/24 11:41,434656,14.92087131,0.0000305,74.0696,68.41,96.9899,263.1318,0,999,23618,0.00031389,0.00003153,0,4501119,0 TIMED,1 26998U 01055B   24265.48707679  .00003153  00000-0  31389-3 0  9991,2 26998  74.0696  68.4100 0000305  96.9899 263.1318 14.92087131236185,2001-055B,26998,6969.566,96.509,591.643,591.218,0
GENERATED VIA SPACETRACK.ORG API,18 SPCS,26998,TIMED,PAYLOAD,U,01055B,9/22/24 3:46,405184,14.92091207,0.0000273,74.0698,67.0669,86.2689,273.8525,0,999,23642,0.000312,0.00003134,0,4501535,0 TIMED,1 26998U 01055B   24266.15756256  .00003134  00000-0  31200-3 0  9992,2 26998  74.0698  67.0669 0000273  86.2689 273.8525 14.92091207236429,2001-055B,26998,6969.553,96.509,591.608,591.228,0
GENERATED VIA SPACETRACK.ORG API,18 SPCS,26998,TIMED,PAYLOAD,U,01055B,9/22/24 11:49,359776,14.92092549,0.000028,74.0699,66.3953,83.0068,277.1146,0,999,23633,0.00029125,0.00002923,0,4502159,0 TIMED,1 26998U 01055B   24266.49280509  .00002923  00000-0  29125-3 0  9990,2 26998  74.0699  66.3953 0000280  83.0068 277.1146 14.92092549236338,2001-055B,26998,6969.549,96.509,591.609,591.219,0
GENERATED VIA SPACETRACK.ORG API,18 SPCS,26998,TIMED,PAYLOAD,U,01055B,9/22/24 21:28,225280,14.92095284,0.0000267,74.07,65.5894,76.3256,283.7956,0,999,23639,0.000303,0.00003042,0,4502422,0 TIMED,1 26998U 01055B   24266.89509520  .00003042  00000-0  30300-3 0  9991,2 26998  74.0700  65.5894 0000267  76.3256 283.7956 14.92095284236392,2001-055B,26998,6969.54,96.509,591.591,591.219,0
GENERATED VIA SPACETRACK.ORG API,18 SPCS,26998,TIMED,PAYLOAD,U,01055B,9/23/24 3:55,132448,14.92098806,0.0000272,74.0701,65.0522,68.9326,291.1885,0,999,23657,0.00037126,0.00003737,0,4502475,0 TIMED,1 26998U 01055B   24267.16328857  .00003737  00000-0  37126-3 0  9998,2 26998  74.0701  65.0522 0000272  68.9326 291.1885 14.92098806236574,2001-055B,26998,6969.529,96.508,591.584,591.205,0
GENERATED VIA SPACETRACK.ORG API,18 SPCS,26998,TIMED,PAYLOAD,U,01055B,9/23/24 11:57,936704,14.9210108,0.0000276,74.0701,64.3807,64.2949,295.8262,0,999,23648,0.00037573,0.00003783,0,4503058,0 TIMED,1 26998U 01055B   24267.49852936  .00003783  00000-0  37573-3 0  9991,2 26998  74.0701  64.3807 0000276  64.2949 295.8262 14.92101080236485,2001-055B,26998,6969.522,96.508,591.58,591.195,0
GENERATED VIA SPACETRACK.ORG API,18 SPCS,26998,TIMED,PAYLOAD,U,01055B,9/23/24 21:37,568064,14.9210589,0.000028,74.0701,63.5745,61.9662,298.1549,0,999,23654,0.00043664,0.00004404,0,4503348,0 TIMED,1 26998U 01055B   24267.90081676  .00004404  00000-0  43664-3 0  9991,2 26998  74.0701  63.5745 0000280  61.9662 298.1549 14.92105890236542,2001-055B,26998,6969.507,96.508,591.567,591.177,0
GENERATED VIA SPACETRACK.ORG API,18 SPCS,26998,TIMED,PAYLOAD,U,01055B,9/24/24 4:03,465728,14.9210403,0.000029,74.0701,63.0373,59.4123,300.7089,0,999,23672,0.00034873,0.00003509,0,4503483,0 TIMED,1 26998U 01055B   24268.16901002  .00003509  00000-0  34873-3 0  9991,2 26998  74.0701  63.0373 0000290  59.4123 300.7089 14.92104030236723,2001-055B,26998,6969.513,96.508,591.58,591.176,0
GENERATED VIA SPACETRACK.ORG API,18 SPCS,26998,TIMED,PAYLOAD,U,01055B,9/24/24 12:06,165440,14.92106486,0.0000301,74.0701,62.3657,55.5632,304.5579,0,999,23663,0.00036224,0.00003646,0,4504155,0 TIMED,1 26998U 01055B   24268.50424960  .00003646  00000-0  36224-3 0  9996,2 26998  74.0701  62.3657 0000301  55.5632 304.5579 14.92106486236638,2001-055B,26998,6969.505,96.508,591.58,591.161,0
GENERATED VIA SPACETRACK.ORG API,18 SPCS,26998,TIMED,PAYLOAD,U,01055B,9/24/24 16:55,956928,14.92108142,0.0000317,74.0702,61.9628,52.3464,307.7748,0,999,23666,0.0003771,0.00003798,0,4504444,0 TIMED,1 26998U 01055B   24268.70539302  .00003798  00000-0  37710-3 0  9994,2 26998  74.0702  61.9628 0000317  52.3464 307.7748 14.92108142236664,2001-055B,26998,6969.5,96.508,591.586,591.144,0
GENERATED VIA SPACETRACK.ORG API,18 SPCS,26998,TIMED,PAYLOAD,U,01055B,9/25/24 4:11,346272,14.92112796,0.0000334,74.0702,61.0225,46.3915,313.7296,0,999,23687,0.00041648,0.00004199,0,4504506,0 TIMED,1 26998U 01055B   24269.17472623  .00004199  00000-0  41648-3 0  9999,2 26998  74.0702  61.0225 0000334  46.3915 313.7296 14.92112796236879,2001-055B,26998,6969.486,96.507,591.584,591.118,0
GENERATED VIA SPACETRACK.ORG API,18 SPCS,26998,TIMED,PAYLOAD,U,01055B,9/25/24 12:14,907744,14.92115396,0.0000349,74.0704,60.351,41.9929,318.1281,0,999,23678,0.00045516,0.00004593,0,4505134,0 TIMED,1 26998U 01055B   24269.50996421  .00004593  00000-0  45516-3 0  9999,2 26998  74.0704  60.3510 0000349  41.9929 318.1281 14.92115396236784,2001-055B,26998,6969.478,96.507,591.586,591.099,0
GENERATED VIA SPACETRACK.ORG API,18 SPCS,26998,TIMED,PAYLOAD,U,01055B,9/25/24 18:40,470176,14.92117898,0.0000366,74.0705,59.8138,38.2994,321.8215,0,999,23682,0.00046527,0.00004696,0,4505447,0 TIMED,1 26998U 01055B   24269.77815359  .00004696  00000-0  46527-3 0  9995,2 26998  74.0705  59.8138 0000366  38.2994 321.8215 14.92117898236826,2001-055B,26998,6969.47,96.507,591.59,591.08,0
GENERATED VIA SPACETRACK.ORG API,18 SPCS,26998,TIMED,PAYLOAD,U,01055B,9/26/24 12:22,67712,14.92123947,0.0000391,74.0704,58.3361,30.8126,329.308,0,999,23707,0.00043087,0.00004347,0,4505936,0 TIMED,1 26998U 01055B   24270.51567208  .00004347  00000-0  43087-3 0  9997,2 26998  74.0704  58.3361 0000391  30.8126 329.3080 14.92123947237073,2001-055B,26998,6969.451,96.507,591.589,591.044,0
GENERATED VIA SPACETRACK.ORG API,18 SPCS,26998,TIMED,PAYLOAD,U,01055B,9/26/24 12:22,67712,14.92123947,0.0000391,74.0704,58.3361,30.8126,329.308,0,999,23693,0.00043087,0.00004347,0,4506475,0 TIMED,1 26998U 01055B   24270.51567208  .00004347  00000-0  43087-3 0  9997,2 26998  74.0704  58.3361 0000391  30.8126 329.3080 14.92123947236937,2001-055B,26998,6969.451,96.507,591.589,591.044,0
GENERATED VIA SPACETRACK.ORG API,18 SPCS,26998,TIMED,PAYLOAD,U,01055B,9/27/24 12:30,668672,14.92133186,0.0000459,74.0704,56.3212,24.7313,335.3891,0,999,23722,0.00041594,0.00004196,0,4506899,0 TIMED,1 26998U 01055B   24271.52137348  .00004196  00000-0  41594-3 0  9990,2 26998  74.0704  56.3212 0000459  24.7313 335.3891 14.92133186237221,2001-055B,26998,6969.422,96.506,591.607,590.967,0
GENERATED VIA SPACETRACK.ORG API,18 SPCS,26998,TIMED,PAYLOAD,U,01055B,9/27/24 12:30,668672,14.92133186,0.0000459,74.0704,56.3212,24.7313,335.3891,0,999,23708,0.00041594,0.00004196,0,4507270,0 TIMED,1 26998U 01055B   24271.52137348  .00004196  00000-0  41594-3 0  9990,2 26998  74.0704  56.3212 0000459  24.7313 335.3891 14.92133186237085,2001-055B,26998,6969.422,96.506,591.607,590.967,0
GENERATED VIA SPACETRACK.ORG API,18 SPCS,26998,TIMED,PAYLOAD,U,01055B,9/27/24 18:56,958080,14.92135203,0.0000449,74.0705,55.784,15.3119,344.8077,0,999,23712,0.00040862,0.00004121,0,4507483,0 TIMED,1 26998U 01055B   24271.78955970  .00004121  00000-0  40862-3 0  9992,2 26998  74.0705  55.7840 0000449  15.3119 344.8077 14.92135203237123,2001-055B,26998,6969.416,96.506,591.594,590.968,0
GENERATED VIA SPACETRACK.ORG API,18 SPCS,26998,TIMED,PAYLOAD,U,01055B,9/28/24 12:38,786656,14.92141976,0.0000505,74.0705,54.3064,10.7947,349.3247,0,999,23737,0.00042067,0.00004245,0,4507880,0 TIMED,1 26998U 01055B   24272.52706929  .00004245  00000-0  42067-3 0  9999,2 26998  74.0705  54.3064 0000505  10.7947 349.3247 14.92141976237377,2001-055B,26998,6969.395,96.506,591.612,590.908,0
GENERATED VIA SPACETRACK.ORG API,18 SPCS,26998,TIMED,PAYLOAD,U,01055B,9/28/24 12:38,786656,14.92141976,0.0000505,74.0705,54.3064,10.7947,349.3247,0,999,23723,0.00042067,0.00004245,0,4508135,0 TIMED,1 26998U 01055B   24272.52706929  .00004245  00000-0  42067-3 0  9999,2 26998  74.0705  54.3064 0000505  10.7947 349.3247 14.92141976237232,2001-055B,26998,6969.395,96.506,591.612,590.908,0
GENERATED VIA SPACETRACK.ORG API,18 SPCS,26998,TIMED,PAYLOAD,U,01055B,9/28/24 20:41,684576,14.92146316,0.0000524,74.0706,53.6347,8.0831,352.036,0,999,23728,0.00047654,0.00004815,0,4508501,0 TIMED,1 26998U 01055B   24272.86229959  .00004815  00000-0  47654-3 0  9999,2 26998  74.0706  53.6347 0000524   8.0831 352.0360 14.92146316237287,2001-055B,26998,6969.381,96.505,591.612,590.881,0
GENERATED VIA SPACETRACK.ORG API,18 SPCS,26998,TIMED,PAYLOAD,U,01055B,9/29/24 11:10,585920,14.92151519,0.000055,74.0707,52.4257,7.949,352.1701,0,999,23737,0.00046716,0.0000472,0,4509172,0 TIMED,1 26998U 01055B   24273.46571280  .00004720  00000-0  46716-3 0  9996,2 26998  74.0707  52.4257 0000550   7.9490 352.1701 14.92151519237374,2001-055B,26998,6969.365,96.505,591.614,590.847,0
